[{"OBJECT_NAME":"HORS 2","OBJECT_ID":"2023-091AG","EPOCH":"2026-03-09T22:11:34.810944","MEAN_MOTION":15.2928008,"ECCENTRICITY":0.00098173,"INCLINATION":97.5195,"RA_OF_ASC_NODE":134.7443,"ARG_OF_PERICENTER":79.3164,"MEAN_ANOMALY":280.9181,"EPHEMERIS_TYPE":0,"CLASSIFICATION_TYPE":"U","NORAD_CAT_ID":57196,"ELEMENT_SET_NO":999,"REV_AT_EPOCH":14934,"BSTAR":0.00059338338,"MEAN_MOTION_DOT":0.00016821,"MEAN_MOTION_DDOT":0},{"OBJECT_NAME":"STARLINK-31260","OBJECT_ID":"2024-020F","EPOCH":"2026-03-09T21:22:23.717856","MEAN_MOTION":15.30200171,"ECCENTRICITY":1.897e-5,"INCLINATION":53.1625,"RA_OF_ASC_NODE":321.3594,"ARG_OF_PERICENTER":190.3877,"MEAN_ANOMALY":169.712,"EPHEMERIS_TYPE":0,"CLASSIFICATION_TYPE":"U","NORAD_CAT_ID":58881,"ELEMENT_SET_NO":999,"REV_AT_EPOCH":11810,"BSTAR":0.0001446134,"MEAN_MOTION_DOT":3.927e-5,"MEAN_MOTION_DDOT":0}]
